ONEWEB-0338             
1 49204U 21083U   23299.43031026  .00000135  00000+0  30121-3 0  9995
2 49204  87.9151 106.5261 0001483  71.8238 288.3057 13.20770059109465
ONEWEB-0339             
1 49205U 21083V   23299.56602813  .00000080  00000+0  18398-3 0  9999
2 49205  87.9006 152.1837 0001463  81.3615 278.7680 13.13472242104267
ONEWEB-0340             
1 49206U 21083W   23299.59158622  .00000053  00000+0  10265-3 0  9992
2 49206  87.9186 167.3356 0001638  83.8661 276.2657 13.18684652102847
ONEWEB-0341             
1 49207U 21083X   23299.60001449  .00000312  00000+0  75844-3 0  9991
2 49207  87.9259 167.3149 0001780  64.0248 296.1068 13.18691437102867
ONEWEB-0342             
1 49208U 21083Y   23299.51237593  .00000086  00000+0  18072-3 0  9991
2 49208  87.9143 106.5394 0001644  80.7777 279.3542 13.20770417109448
ONEWEB-0343             
1 49209U 21083Z   23299.59579729  .00000057  00000+0  11100-3 0  9993
2 49209  87.9252 167.3426 0000615  64.4186 295.7010 13.18684855102915
ONEWEB-0344             
1 49210U 21083AA  23299.60729526 -.00000009  00000+0 -59797-4 0  9993
2 49210  87.9011 152.1817 0001699  89.2186 270.9137 13.13472080104270
ONEWEB-0345             
1 49211U 21083AB  23299.62526988 -.00000537  00000+0 -15046-2 0  9996
2 49211  87.9010 152.1639 0001367 105.9418 254.1862 13.13469956104286
